#aV2012 11  3  0  0  0.00000000     288 DD+AD WGS84 FIT  NGA
## 1712 518400.00000000   300.00000000 56234 0.0000000000000
+   31     1  2  3  4  5  6  7  8  9 10 11 12 13 14 15 16 17
+         18 19 20 21 22 23 24 25 26 28 29 30 31 32  0  0  0
+          0  0  0  0  0  0  0  0  0  0  0  0  0  0  0  0  0
+          0  0  0  0  0  0  0  0  0  0  0  0  0  0  0  0  0
+          0  0  0  0  0  0  0  0  0  0  0  0  0  0  0  0  0
++         2  2  2  2  2  2  2  2  2  2  2  2  2  2  2  2  2
++         2  2  2  2  2  2  2  2  2  2  2  2  2  2  2  0  0
++         0  0  0  0  0  0  0  0  0  0  0  0  0  0  0  0  0
++         0  0  0  0  0  0  0  0  0  0  0  0  0  0  0  0  0
++         0  0  0  0  0  0  0  0  0  0  0  0  0  0  0  0  0
%c cc cc ccc ccc cccc cccc cccc cccc ccccc ccccc ccccc ccccc
%c cc cc ccc ccc cccc cccc cccc cccc ccccc ccccc ccccc ccccc
%f  0.0000000  0.000000000  0.00000000000  0.000000000000000
%f  0.0000000  0.000000000  0.00000000000  0.000000000000000
%i    0    0    0    0      0      0      0      0         0
%i    0    0    0    0      0      0      0      0         0
/*      NGA, ST. LOUIS,MO.                                  
/*   EPHEMERIS COMPUTED FROM  1 DAYS OF DATA
/*   EPOCHA SMOOTHER  
/* CCCCCCCCCCCCCCCCCCCCCCCCCCCCCCCCCCCCCCCCCCCCCCCCCCCCCCCCC
*  2012 11  3 16 20  0.00000000                                                 
P  1  18507.123491   7130.879344  17672.975454    280.741841                    
V  1   9931.396431  20215.669855 -18476.295358      0.017646                    
P  2 -14331.491899 -22682.367615   -625.288095    407.860679                    
V  2   2132.424763  -2427.262524  30908.626147      0.011171                    
P  3  16667.957390  11133.011042 -18041.206145    123.418636                    
V  3 -21454.887035   4874.921835 -17054.459494      0.052086                    
P  4  -3219.171998 -23113.490195  12124.223692     35.413706                    
V  4  10856.485349  12171.341085  25812.574975      0.112658                    
P  5  -8092.424411 -15094.715318 -20291.433727   -364.081619                    
V  5  13751.971182 -21837.129690  10912.679263     -0.025958                    
P  6  11112.057182  13789.178422 -19786.300349    467.709120                    
V  6 -25197.529439   2828.310890 -11795.799316     -0.102692                    
P  7  12407.326704  -8243.513329 -21942.347778    141.169802                    
V  7  13831.234924  24253.145844  -1566.132442      0.044965                    
P  8   4117.714862 -18872.037898 -17848.049790      2.676419                    
V  8  10661.173288  20432.475799 -19615.354159      0.001493                    
P  9 -18282.476478 -12064.949723  14426.883032    197.130125                    
V  9  -8296.271436 -17473.997194 -24278.155010      0.027509                    
P 10   6789.760539 -23949.485175  -8919.456912    -57.305908                    
V 10   8512.584258  -7849.009359  28826.345915     -0.012043                    
P 11  22419.812574  10036.394082  10039.690307   -319.463741                    
V 11   6767.592126  12356.903984 -26061.609820     -0.038593                    
P 12 -17125.709235   2328.564931  20091.783436     99.659870                    
V 12  12449.936189 -22336.510224  13373.054411      0.020329                    
P 13  23357.612200  -5600.622469 -11591.342763    169.837394                    
V 13  14226.281345   2974.317367  27437.501483     -0.026650                    
P 14  -8093.495115  13906.264578  21300.751792    216.081316                    
V 14 -26477.602547  -2353.094117  -8745.918528      0.007023                    
P 15 -24966.718137  -5034.847382  -7954.991596    -98.774334                    
V 15   9960.166759  -3238.332538 -29005.884896     -0.008970                    
P 16   6966.291560  14893.463202 -20790.618865   -249.002933                    
V 16 -14868.717192  21836.770944  10968.313438     -0.005952                    
P 17   7106.399429 -14515.264506  21221.281871     81.973381                    
V 17  26512.846518   1647.961462  -8059.627904     -0.034589                    
P 18 -16500.096010  19560.241353  -6007.105275    222.837261                    
V 18    632.938640  -9135.621719 -29972.551182      0.018371                    
P 19  23414.064599   8758.241763  -9621.161883   -318.851447                    
V 19 -12129.418720   1168.513212 -28281.794084     -0.034769                    
P 20  18102.207211  -4960.631105  18598.985966     72.308360                    
V 20  -9236.181311  22336.958281  14889.031959      0.010745                    
P 21 -10676.348429  12046.737389 -20535.396170   -259.944656                    
V 21 -14684.191974 -23242.320139  -6407.058575     -0.023589                    
P 22  -8574.348912  24282.438254   6409.487333    150.541576                    
V 22  -7286.747203   4983.817892 -29616.008726      0.006783                    
P 23  26745.534252    859.618550    894.994731    147.714819                    
V 23  -1075.387405   2562.054479  31416.707589     -0.038869                    
P 24 -15126.023722 -21972.780314   2574.306357      3.796815                    
V 24    584.544914  -4071.073830 -31360.021986      0.015918                    
P 25 -18097.314030  14817.279100  12482.275715     49.382456                    
V 25   5942.485744 -14919.005508  26308.153712      0.017663                    
P 26 -16145.874395 -13048.566759 -17393.302514   -223.127250                    
V 26  20707.928826    779.217122 -20210.608506      0.135651                    
P 28  11804.370418 -23397.473055   4085.371807    201.188764                    
V 28   4334.769481  -2562.832221 -31790.886472      0.035518                    
P 29 -24408.596266   5214.080911  -8976.804121    373.111550                    
V 29 -11360.831282  -2992.321534  29029.510106      0.040847                    
P 30    502.964284  22814.110448 -13967.883488   -336.151660                    
V 30  -8816.947425  14823.913866  24500.996029      0.164414                    
P 31   5629.790726  23909.160393   9966.432174    284.615191                    
V 31  -7861.306817  -9855.008901  28875.736452      0.022487                    
P 32  14142.710214   6668.051630  21608.721377   -504.474338                    
V 32 -15008.808422  22575.632143   3380.103744     -0.035776                    
EOF
